[
  {
    "OBJECT_NAME": "STARLINK-3194",
    "OBJECT_ID": "21115AL",
    "EPOCH": "2025-11-11T06:10:21.420768",
    "MEAN_MOTION": 15.08848239,
    "ECCENTRICITY": 0.0001488,
    "INCLINATION": 53.2168,
    "RA_OF_ASC_NODE": 310.7827,
    "ARG_OF_PERICENTER": 85.3917,
    "MEAN_ANOMALY": 274.7245,
    "EPHEMERIS_TYPE": 0,
    "CLASSIFICATION_TYPE": "U",
    "NORAD_CAT_ID": 49758,
    "ELEMENT_SET_NO": 999,
    "REV_AT_EPOCH": 21779,
    "BSTAR": 0.00010566,
    "MEAN_MOTION_DOT": 1.394e-05,
    "MEAN_MOTION_DDOT": 0.0,
    "TLE_LINE1": "1 49758U 21115AL  25315.25719237  .00001394  00000+0  10566-3 0  9992",
    "TLE_LINE2": "2 49758  53.2168 310.7827 0001488  85.3917 274.7245 15.08848239217797",
    "COMMENT": "Grouped by shell and plane from TLE"
  },
  {
    "OBJECT_NAME": "STARLINK-3204",
    "OBJECT_ID": "21115AM",
    "EPOCH": "2025-11-11T05:54:28.126368",
    "MEAN_MOTION": 15.08840852,
    "ECCENTRICITY": 0.0001456,
    "INCLINATION": 53.2187,
    "RA_OF_ASC_NODE": 310.8332,
    "ARG_OF_PERICENTER": 90.1114,
    "MEAN_ANOMALY": 270.0045,
    "EPHEMERIS_TYPE": 0,
    "CLASSIFICATION_TYPE": "U",
    "NORAD_CAT_ID": 49759,
    "ELEMENT_SET_NO": 999,
    "REV_AT_EPOCH": 21779,
    "BSTAR": 4.2458000000000006e-05,
    "MEAN_MOTION_DOT": 3.88e-06,
    "MEAN_MOTION_DDOT": 0.0,
    "TLE_LINE1": "1 49759U 21115AM  25315.24615887  .00000388  00000+0  42458-4 0  9996",
    "TLE_LINE2": "2 49759  53.2187 310.8332 0001456  90.1114 270.0045 15.08840852217799",
    "COMMENT": "Grouped by shell and plane from TLE"
  },
  {
    "OBJECT_NAME": "STARLINK-3199",
    "OBJECT_ID": "21115AN",
    "EPOCH": "2025-11-11T06:20:57.628032",
    "MEAN_MOTION": 15.08844905,
    "ECCENTRICITY": 0.0001461,
    "INCLINATION": 53.2176,
    "RA_OF_ASC_NODE": 310.7496,
    "ARG_OF_PERICENTER": 96.5588,
    "MEAN_ANOMALY": 263.557,
    "EPHEMERIS_TYPE": 0,
    "CLASSIFICATION_TYPE": "U",
    "NORAD_CAT_ID": 49760,
    "ELEMENT_SET_NO": 999,
    "REV_AT_EPOCH": 21780,
    "BSTAR": 0.0,
    "MEAN_MOTION_DOT": -3.14e-06,
    "MEAN_MOTION_DDOT": 0.0,
    "TLE_LINE1": "1 49760U 21115AN  25315.26455588 -.00000314  00000+0 -16078-5 0  9991",
    "TLE_LINE2": "2 49760  53.2176 310.7496 0001461  96.5588 263.5570 15.08844905217805",
    "COMMENT": "Grouped by shell and plane from TLE"
  },
  {
    "OBJECT_NAME": "STARLINK-3203",
    "OBJECT_ID": "21115AP",
    "EPOCH": "2025-11-11T06:05:04.162560",
    "MEAN_MOTION": 15.08849422,
    "ECCENTRICITY": 0.000159,
    "INCLINATION": 53.2163,
    "RA_OF_ASC_NODE": 310.8011,
    "ARG_OF_PERICENTER": 82.8708,
    "MEAN_ANOMALY": 277.2465,
    "EPHEMERIS_TYPE": 0,
    "CLASSIFICATION_TYPE": "U",
    "NORAD_CAT_ID": 49761,
    "ELEMENT_SET_NO": 999,
    "REV_AT_EPOCH": 21779,
    "BSTAR": 6.8145e-05,
    "MEAN_MOTION_DOT": 7.97e-06,
    "MEAN_MOTION_DDOT": 0.0,
    "TLE_LINE1": "1 49761U 21115AP  25315.25352040  .00000797  00000+0  68145-4 0  9994",
    "TLE_LINE2": "2 49761  53.2163 310.8011 0001590  82.8708 277.2465 15.08849422217793",
    "COMMENT": "Grouped by shell and plane from TLE"
  },
  {
    "OBJECT_NAME": "STARLINK-3195",
    "OBJECT_ID": "21115AQ",
    "EPOCH": "2025-11-11T06:31:33.378240",
    "MEAN_MOTION": 15.08842506,
    "ECCENTRICITY": 0.0001123,
    "INCLINATION": 53.2179,
    "RA_OF_ASC_NODE": 310.718,
    "ARG_OF_PERICENTER": 88.0933,
    "MEAN_ANOMALY": 272.0187,
    "EPHEMERIS_TYPE": 0,
    "CLASSIFICATION_TYPE": "U",
    "NORAD_CAT_ID": 49762,
    "ELEMENT_SET_NO": 999,
    "REV_AT_EPOCH": 21780,
    "BSTAR": 0.0001263,
    "MEAN_MOTION_DOT": 1.723e-05,
    "MEAN_MOTION_DDOT": 0.0,
    "TLE_LINE1": "1 49762U 21115AQ  25315.27191410  .00001723  00000+0  12630-3 0  9996",
    "TLE_LINE2": "2 49762  53.2179 310.7180 0001123  88.0933 272.0187 15.08842506217809",
    "COMMENT": "Grouped by shell and plane from TLE"
  },
  {
    "OBJECT_NAME": "STARLINK-3198",
    "OBJECT_ID": "21115AR",
    "EPOCH": "2025-11-11T06:15:39.326976",
    "MEAN_MOTION": 15.08851199,
    "ECCENTRICITY": 0.0001395,
    "INCLINATION": 53.2172,
    "RA_OF_ASC_NODE": 310.7677,
    "ARG_OF_PERICENTER": 92.3422,
    "MEAN_ANOMALY": 267.773,
    "EPHEMERIS_TYPE": 0,
    "CLASSIFICATION_TYPE": "U",
    "NORAD_CAT_ID": 49763,
    "ELEMENT_SET_NO": 999,
    "REV_AT_EPOCH": 21780,
    "BSTAR": 0.0,
    "MEAN_MOTION_DOT": -9.38e-06,
    "MEAN_MOTION_DDOT": 0.0,
    "TLE_LINE1": "1 49763U 21115AR  25315.26087184 -.00000938  00000+0 -40858-4 0  9991",
    "TLE_LINE2": "2 49763  53.2172 310.7677 0001395  92.3422 267.7730 15.08851199217809",
    "COMMENT": "Grouped by shell and plane from TLE"
  },
  {
    "OBJECT_NAME": "STARLINK-3227",
    "OBJECT_ID": "21115AT",
    "EPOCH": "2025-11-11T06:27:38.413440",
    "MEAN_MOTION": 15.08824709,
    "ECCENTRICITY": 0.0001445,
    "INCLINATION": 53.2176,
    "RA_OF_ASC_NODE": 310.7408,
    "ARG_OF_PERICENTER": 93.3282,
    "MEAN_ANOMALY": 266.7876,
    "EPHEMERIS_TYPE": 0,
    "CLASSIFICATION_TYPE": "U",
    "NORAD_CAT_ID": 49765,
    "ELEMENT_SET_NO": 999,
    "REV_AT_EPOCH": 21780,
    "BSTAR": 6.3999e-06,
    "MEAN_MOTION_DOT": -1.86e-06,
    "MEAN_MOTION_DDOT": 0.0,
    "TLE_LINE1": "1 49765U 21115AT  25315.26919460 -.00000186  00000+0  63999-5 0  9990",
    "TLE_LINE2": "2 49765  53.2176 310.7408 0001445  93.3282 266.7876 15.08824709217805",
    "COMMENT": "Grouped by shell and plane from TLE"
  },
  {
    "OBJECT_NAME": "STARLINK-3190",
    "OBJECT_ID": "21115AU",
    "EPOCH": "2025-11-11T05:13:27.120000",
    "MEAN_MOTION": 15.0883694,
    "ECCENTRICITY": 0.0001386,
    "INCLINATION": 53.2178,
    "RA_OF_ASC_NODE": 310.9722,
    "ARG_OF_PERICENTER": 95.2302,
    "MEAN_ANOMALY": 264.8849,
    "EPHEMERIS_TYPE": 0,
    "CLASSIFICATION_TYPE": "U",
    "NORAD_CAT_ID": 49766,
    "ELEMENT_SET_NO": 999,
    "REV_AT_EPOCH": 21779,
    "BSTAR": 1.4921000000000002e-05,
    "MEAN_MOTION_DOT": -5e-07,
    "MEAN_MOTION_DDOT": 0.0,
    "TLE_LINE1": "1 49766U 21115AU  25315.21767500 -.00000050  00000+0  14921-4 0  9992",
    "TLE_LINE2": "2 49766  53.2178 310.9722 0001386  95.2302 264.8849 15.08836940217794",
    "COMMENT": "Grouped by shell and plane from TLE"
  },
  {
    "OBJECT_NAME": "STARLINK-3192",
    "OBJECT_ID": "21115AV",
    "EPOCH": "2025-11-11T06:36:51.350112",
    "MEAN_MOTION": 15.08840842,
    "ECCENTRICITY": 0.0001393,
    "INCLINATION": 53.2178,
    "RA_OF_ASC_NODE": 310.7028,
    "ARG_OF_PERICENTER": 86.2963,
    "MEAN_ANOMALY": 273.8188,
    "EPHEMERIS_TYPE": 0,
    "CLASSIFICATION_TYPE": "U",
    "NORAD_CAT_ID": 49767,
    "ELEMENT_SET_NO": 999,
    "REV_AT_EPOCH": 21780,
    "BSTAR": 4.6229e-05,
    "MEAN_MOTION_DOT": 4.48e-06,
    "MEAN_MOTION_DDOT": 0.0,
    "TLE_LINE1": "1 49767U 21115AV  25315.27559433  .00000448  00000+0  46229-4 0  9999",
    "TLE_LINE2": "2 49767  53.2178 310.7028 0001393  86.2963 273.8188 15.08840842217807",
    "COMMENT": "Grouped by shell and plane from TLE"
  },
  {
    "OBJECT_NAME": "STARLINK-3196",
    "OBJECT_ID": "21115AW",
    "EPOCH": "2025-11-11T06:58:03.267840",
    "MEAN_MOTION": 15.0883939,
    "ECCENTRICITY": 0.0001399,
    "INCLINATION": 53.2185,
    "RA_OF_ASC_NODE": 310.6386,
    "ARG_OF_PERICENTER": 96.8989,
    "MEAN_ANOMALY": 263.2162,
    "EPHEMERIS_TYPE": 0,
    "CLASSIFICATION_TYPE": "U",
    "NORAD_CAT_ID": 49768,
    "ELEMENT_SET_NO": 999,
    "REV_AT_EPOCH": 21780,
    "BSTAR": 9.1797e-05,
    "MEAN_MOTION_DOT": 1.173e-05,
    "MEAN_MOTION_DDOT": 0.0,
    "TLE_LINE1": "1 49768U 21115AW  25315.29031560  .00001173  00000+0  91797-4 0  9994",
    "TLE_LINE2": "2 49768  53.2185 310.6386 0001399  96.8989 263.2162 15.08839390217804",
    "COMMENT": "Grouped by shell and plane from TLE"
  },
  {
    "OBJECT_NAME": "STARLINK-3208",
    "OBJECT_ID": "21115AX",
    "EPOCH": "2025-11-11T06:59:26.374272",
    "MEAN_MOTION": 15.08841082,
    "ECCENTRICITY": 0.0001389,
    "INCLINATION": 53.218,
    "RA_OF_ASC_NODE": 310.6812,
    "ARG_OF_PERICENTER": 89.5925,
    "MEAN_ANOMALY": 270.5226,
    "EPHEMERIS_TYPE": 0,
    "CLASSIFICATION_TYPE": "U",
    "NORAD_CAT_ID": 49769,
    "ELEMENT_SET_NO": 999,
    "REV_AT_EPOCH": 21780,
    "BSTAR": 9.8537e-05,
    "MEAN_MOTION_DOT": 1.281e-05,
    "MEAN_MOTION_DDOT": 0.0,
    "TLE_LINE1": "1 49769U 21115AX  25315.29127748  .00001281  00000+0  98537-4 0  9998",
    "TLE_LINE2": "2 49769  53.2180 310.6812 0001389  89.5925 270.5226 15.08841082217805",
    "COMMENT": "Grouped by shell and plane from TLE"
  },
  {
    "OBJECT_NAME": "STARLINK-3191",
    "OBJECT_ID": "21115AY",
    "EPOCH": "2025-11-11T07:10:02.663616",
    "MEAN_MOTION": 15.08839412,
    "ECCENTRICITY": 0.0001424,
    "INCLINATION": 53.219,
    "RA_OF_ASC_NODE": 310.6487,
    "ARG_OF_PERICENTER": 88.2031,
    "MEAN_ANOMALY": 271.9124,
    "EPHEMERIS_TYPE": 0,
    "CLASSIFICATION_TYPE": "U",
    "NORAD_CAT_ID": 49770,
    "ELEMENT_SET_NO": 999,
    "REV_AT_EPOCH": 21892,
    "BSTAR": 7.8312e-06,
    "MEAN_MOTION_DOT": -1.63e-06,
    "MEAN_MOTION_DDOT": 0.0,
    "TLE_LINE1": "1 49770U 21115AY  25315.29864194 -.00000163  00000+0  78312-5 0  9992",
    "TLE_LINE2": "2 49770  53.2190 310.6487 0001424  88.2031 271.9124 15.08839412218920",
    "COMMENT": "Grouped by shell and plane from TLE"
  },
  {
    "OBJECT_NAME": "STARLINK-3201",
    "OBJECT_ID": "21115AZ",
    "EPOCH": "2025-11-11T07:08:39.971040",
    "MEAN_MOTION": 15.08859754,
    "ECCENTRICITY": 0.0001504,
    "INCLINATION": 53.2165,
    "RA_OF_ASC_NODE": 310.6023,
    "ARG_OF_PERICENTER": 99.7581,
    "MEAN_ANOMALY": 260.3581,
    "EPHEMERIS_TYPE": 0,
    "CLASSIFICATION_TYPE": "U",
    "NORAD_CAT_ID": 49771,
    "ELEMENT_SET_NO": 999,
    "REV_AT_EPOCH": 21780,
    "BSTAR": 0.00034243,
    "MEAN_MOTION_DOT": 5.169e-05,
    "MEAN_MOTION_DDOT": 0.0,
    "TLE_LINE1": "1 49771U 21115AZ  25315.29768485  .00005169  00000+0  34243-3 0  9992",
    "TLE_LINE2": "2 49771  53.2165 310.6023 0001504  99.7581 260.3581 15.08859754217801",
    "COMMENT": "Grouped by shell and plane from TLE"
  }
]